IRIDIUM 166             
1 43570U 18061B   24229.37769124  .00000529  00000+0  18185-3 0  9994
2 43570  86.4015 336.6606 0002289  88.8745 271.2713 14.34214506317392
IRIDIUM 158             
1 43571U 18061C   24229.69482094  .00000788  00000+0  27440-3 0  9999
2 43571  86.4016 336.5376 0002033  93.8078 266.3350 14.34227899317402
IRIDIUM 165             
1 43572U 18061D   24230.20859373  .00000020  00000+0  23260-6 0  9995
2 43572  86.4027 336.3584 0002208  98.8001 261.3445 14.34209845317501
IRIDIUM 155             
1 43573U 18061E   24230.37983012  .00001133  00000+0  39765-3 0  9992
2 43573  86.4024 336.1891 0001764  79.7808 280.3587 14.34213724317506
IRIDIUM 154             
1 43574U 18061F   24229.38404942  .00000889  00000+0  31032-3 0  9998
2 43574  86.4018 336.7036 0002297  98.3242 261.8214 14.34214932317400
IRIDIUM 163             
1 43575U 18061G   24229.71386225  .00000175  00000+0  55321-4 0  9995
2 43575  86.4020 336.5035 0002302  96.3527 263.7931 14.34208916317426
IRIDIUM 156             
1 43576U 18061H   24230.38617671  .00000552  00000+0  19005-3 0  9990
2 43576  86.4015 336.2280 0001972  94.4359 265.7062 14.34214427317504
IRIDIUM 164             
1 43577U 18061J   24230.22760193  .00000824  00000+0  28703-3 0  9999
2 43577  86.4013 336.3240 0002171 103.0117 257.1321 14.34224484317531
